GLOBALSTAR M023         
1 25621U 99004A   25242.76910260 -.00000028  00000+0  42121-3 0  9997
2 25621  52.0094 186.3368 0010028 293.2871  98.6335 12.62503192225156
GLOBALSTAR M040         
1 25622U 99004B   25242.56678490 -.00000061  00000+0  23628-3 0  9990
2 25622  51.9905 191.2180 0000509 175.8938 356.6181 12.62015974224640
GLOBALSTAR M036         
1 25623U 99004C   25242.86612098 -.00000050  00000+0  47496-3 0  9993
2 25623  51.9980  43.4803 0010784 189.9642 327.3112 11.86607453187841
GLOBALSTAR M038         
1 25624U 99004D   25242.64757434 -.00000059  00000+0  29935-3 0  9991
2 25624  51.9951 217.1337 0001572 208.9181 322.3821 12.32531363211553
GLOBALSTAR M022         
1 25649U 99012A   25242.87305244 -.00000090  00000+0 -39367-4 0  9997
2 25649  52.0038  87.8701 0002441 340.2799  33.3037 12.02502530185364
GLOBALSTAR M041         
1 25650U 99012B   25242.64039523 -.00000063  00000+0  28240-3 0  9994
2 25650  52.0049 332.2282 0001945 107.1366 252.9684 11.96683439187197
GLOBALSTAR M046         
1 25651U 99012C   25242.82985068 -.00000012  00000+0  85125-3 0  9998
2 25651  52.0069  35.3955 0002660  57.7298  93.3601 12.09410748192690
GLOBALSTAR M037         
1 25652U 99012D   25242.94034216 -.00000056  00000+0  26821-3 0  9998
2 25652  52.0022 316.4107 0001797   7.6368 164.5089 12.62450074220715
